TIANMU-1 08             
1 57400U 23101B   26066.00237819  .00000346  00000+0  14775-4 0  9993
2 57400  97.2717 118.7901 0006380 134.2174 225.9592 15.29204229146020
STARLINK-35789          
1 67113U 25299M   26068.30204181  .00026284  00000+0  93654-3 0  9997
2 67113  43.0010 171.4723 0001783 273.4705  86.5943 15.28434906 13056
